ONEWEB-0520             
1 54138U 22138AB  24309.27518758  .00000211  00000+0  49419-3 0  9991
2 54138  87.9170  62.2657 0002010  92.3214 267.8149 13.19726942 99882
ONEWEB-0521             
1 54139U 22138AC  24309.30837269 -.00000053  00000+0 -16537-3 0  9998
2 54139  87.9169  62.2499 0001422 110.8190 249.3095 13.19729059 99865
ONEWEB-0522             
1 54140U 22138AD  24308.83293772  .00000136  00000+0  30794-3 0  9993
2 54140  87.9170  62.3466 0001622  93.4925 266.6393 13.19726358 98948
ONEWEB-0523             
1 54141U 22138AE  24309.26387467  .00000177  00000+0  40449-3 0  9990
2 54141  87.9297  31.7948 0000881 122.5259 237.5959 13.20769965102308
ONEWEB-0524             
1 54142U 22138AF  24309.25281588  .00000188  00000+0  43119-3 0  9996
2 54142  87.9293  31.7990 0001218  66.0826 294.0435 13.20770104102303
ONEWEB-0525             
1 54143U 22138AG  24309.30679084  .00000960  00000+0  23659-2 0  9999
2 54143  87.9171  62.2644 0001919 113.0383 247.0952 13.19720989 99898
ONEWEB-0526             
1 54144U 22138AH  24308.88506951  .00000010  00000+0 -84253-5 0  9991
2 54144  87.9172  62.3415 0001729  95.1602 264.9728 13.19725943 99816
ONEWEB-0529             
1 54145U 22138AJ  24308.81239444  .00000172  00000+0  39616-3 0  9994
2 54145  87.9177  62.3811 0001906  95.0672 265.0679 13.19725259 98956
